STARLINK-32328          
1 62489U 25003C   26068.00439021  .00031439  00000+0  11469-2 0  9992
2 62489  43.0025 293.1087 0001427 259.7364 100.3326 15.27588130 66563
TRANSPORTER-12 OBJECT AZ
1 62656U 25009AZ  26068.71026235  .00016057  00000+0  54903-3 0  9991
2 62656  97.3981 151.9913 0000987  45.3581 314.7740 15.30349724 63792
